{
  "version": 0.6,
  "generator": "Overpass API 0.7.55.9 ab41fea6",
  "osm3s": {
    "timestamp_osm_base": "2020-02-22T15:02:02Z",
    "copyright": "The data included in this document is from www.openstreetmap.org. The data is made available under ODbL."
  },
  "elements": [

{
  "type": "node",
  "id": 18928890,
  "lat": 56.2353884,
  "lon": -5.0710164,
  "tags": {
    "highway": "traffic_signals"
  }
},
{
  "type": "node",
  "id": 1288927466,
  "lat": 56.2242525,
  "lon": -5.0812992,
  "tags": {
    "highway": "turning_circle"
  }
},
{
  "type": "node",
  "id": 1288928120,
  "lat": 56.2240091,
  "lon": -5.0789824,
  "tags": {
    "highway": "turning_circle"
  }
},
{
  "type": "node",
  "id": 1288928558,
  "lat": 56.2245575,
  "lon": -5.0823350,
  "tags": {
    "highway": "turning_circle"
  }
},
{
  "type": "node",
  "id": 2103349311,
  "lat": 56.2367310,
  "lon": -5.0681785,
  "tags": {
    "highway": "traffic_signals",
    "source": "survey"
  }
},
{
  "type": "node",
  "id": 3694908755,
  "lat": 56.2314978,
  "lon": -5.0728806,
  "tags": {
    "bench": "yes",
    "highway": "bus_stop",
    "name": "Inveraray, Front Street",
    "shelter": "yes"
  }
},
{
  "type": "node",
  "id": 3833989304,
  "lat": 56.2302885,
  "lon": -5.0730482,
  "tags": {
    "highway": "give_way"
  }
},
{
  "type": "node",
  "id": 3833989305,
  "lat": 56.2299789,
  "lon": -5.0735540,
  "tags": {
    "highway": "give_way"
  }
},
{
  "type": "node",
  "id": 4547454163,
  "lat": 56.2316066,
  "lon": -5.0727789,
  "tags": {
    "highway": "bus_stop",
    "name": "Inveraray, Front Street",
    "shelter": "yes"
  }
},
{
  "type": "node",
  "id": 5909497272,
  "lat": 56.2258007,
  "lon": -5.0769067,
  "tags": {
    "highway": "bus_stop",
    "name": "Inveraray, Barn Brae"
  }
},
{
  "type": "node",
  "id": 5909497273,
  "lat": 56.2256367,
  "lon": -5.0767189,
  "tags": {
    "highway": "bus_stop",
    "name": "Inveraray, Barn Brae"
  }
},
{
  "type": "way",
  "id": 3789371,
  "nodes": [
    506979939,
    3833963154,
    3833989304,
    3833963155,
    506979945,
    506979947,
    506979949,
    506979952,
    3833989305,
    506979954,
    3833963558,
    506979955,
    1288927309,
    506979939
  ],
  "tags": {
    "highway": "trunk",
    "maxspeed": "30 mph",
    "name": "Church Square",
    "oneway": "yes",
    "operator": "Transport Scotland"
  }
},
{
  "type": "way",
  "id": 3996597,
  "nodes": [
    506979164,
    506979954
  ],
  "tags": {
    "highway": "trunk",
    "maxspeed": "30 mph",
    "oneway": "yes",
    "operator": "Transport Scotland",
    "ref": "A83"
  }
},
{
  "type": "way",
  "id": 4320573,
  "nodes": [
    26234117,
    3694908815,
    3694908790
  ],
  "tags": {
    "highway": "primary",
    "lanes": "1",
    "maxspeed": "30 mph",
    "ref": "A819",
    "source": "survey"
  }
},
{
  "type": "way",
  "id": 8301225,
  "nodes": [
    1912489850,
    1402373698,
    1288928124
  ],
  "tags": {
    "alt_name": "Pierhead Road",
    "highway": "tertiary",
    "highway_authority_ref": "C65",
    "name": "Front Street East"
  }
},
{
  "type": "way",
  "id": 24792703,
  "nodes": [
    26234117,
    31006238,
    506993504,
    1402373704,
    18928894,
    1402373701,
    5584673941,
    5584673940,
    1912489850
  ],
  "tags": {
    "highway": "trunk",
    "maxspeed": "30 mph",
    "name": "Front Street",
    "operator": "Transport Scotland",
    "ref": "A83"
  }
},
{
  "type": "way",
  "id": 25395470,
  "nodes": [
    18928888,
    18928890
  ],
  "tags": {
    "highway": "trunk",
    "lanes": "1",
    "maxspeed": "40 mph",
    "name": "Old Military Road",
    "operator": "Transport Scotland",
    "ref": "A83",
    "source": "gps"
  }
},
{
  "type": "way",
  "id": 25395471,
  "nodes": [
    18928887,
    18928888
  ],
  "tags": {
    "bridge": "yes",
    "bridge:name": "Aray Bridge",
    "heritage": "yes",
    "highway": "trunk",
    "lanes": "1",
    "layer": "1",
    "maxspeed": "40 mph",
    "operator": "Transport Scotland",
    "ref": "A83",
    "source": "gps",
    "wikidata": "Q626784",
    "wikipedia": "en:Aray Bridge"
  }
},
{
  "type": "way",
  "id": 25395572,
  "nodes": [
    31006265,
    18928862,
    1288927417,
    18928863,
    1288927957,
    3658569561,
    31006266,
    1288928672,
    18928865,
    31006267,
    18928866,
    2107337785,
    18928867,
    3658569563,
    31006268,
    3658569564,
    3470457850,
    18928868,
    31006269,
    1995135100,
    18928869,
    18928871,
    3834138065,
    3834138070,
    3834138069,
    18928873,
    3658569566,
    18928874,
    3658569565,
    31006270,
    3658569567,
    3834135885,
    18928875,
    18928877,
    3658569568,
    18928878,
    3658569569,
    18928879,
    3658569580,
    18928880,
    3658569579,
    18928881,
    3658569581,
    18928882,
    18928884,
    3658569582,
    2107337814,
    3658569583,
    3658569584,
    18928885,
    1341008899
  ],
  "tags": {
    "highway": "trunk",
    "lanes": "2",
    "maxspeed": "60 mph",
    "name": "Old Military Road",
    "operator": "Transport Scotland",
    "ref": "A83",
    "source": "gps",
    "source:maxspeed": "UK:nsl_single"
  }
},
{
  "type": "way",
  "id": 35937453,
  "nodes": [
    18928893,
    420138663,
    420138665,
    420138667,
    420138668,
    420138670,
    420138671,
    420138673,
    420138675,
    420138676,
    420138678,
    420138679,
    420138681,
    420138682,
    420138684,
    420138685,
    1288927091,
    420138690,
    420138692,
    420138693,
    420138694,
    420138695,
    420138696,
    420138697,
    1995135016,
    420138698,
    420138699
  ],
  "tags": {
    "highway": "service"
  }
},
{
  "type": "way",
  "id": 41452769,
  "nodes": [
    506980812,
    3833963155
  ],
  "tags": {
    "highway": "trunk",
    "maxspeed": "30 mph",
    "name": "Main Street East",
    "oneway": "yes",
    "operator": "Transport Scotland",
    "ref": "A83"
  }
},
{
  "type": "way",
  "id": 41452771,
  "nodes": [
    3833963154,
    3833963559,
    506980812
  ],
  "tags": {
    "highway": "trunk",
    "maxspeed": "30 mph",
    "name": "Main Street West",
    "oneway": "yes",
    "operator": "Transport Scotland",
    "ref": "A83"
  }
},
{
  "type": "way",
  "id": 41453209,
  "nodes": [
    1288928459,
    1995135009,
    1995135006,
    1995135008,
    506988040
  ],
  "tags": {
    "highway": "residential"
  }
},
{
  "type": "way",
  "id": 41453254,
  "nodes": [
    506979164,
    18928903,
    3834005280
  ],
  "tags": {
    "alt_name": "Blacks Land",
    "highway": "trunk",
    "maxspeed": "30 mph",
    "name:left": "Main Street North",
    "name:right": "Main Street South",
    "operator": "Transport Scotland",
    "ref": "A83",
    "source": "gps"
  }
},
{
  "type": "way",
  "id": 41453257,
  "nodes": [
    506979952,
    3834005281,
    506979164
  ],
  "tags": {
    "highway": "trunk",
    "maxspeed": "30 mph",
    "oneway": "yes",
    "operator": "Transport Scotland",
    "ref": "A83"
  }
},
{
  "type": "way",
  "id": 41453477,
  "nodes": [
    506993504,
    2472822889
  ],
  "tags": {
    "highway": "residential",
    "name": "The Avenue",
    "oneway": "no",
    "source": "OS_OpenData_StreetView"
  }
},
{
  "type": "way",
  "id": 113694019,
  "nodes": [
    1288928896,
    1288928522,
    1288927826,
    1288927683,
    1288928967,
    4896758729,
    4896758730,
    1288928900
  ],
  "tags": {
    "highway": "residential",
    "name": "Riochan",
    "source": "OS_OpenData_StreetView"
  }
},
{
  "type": "way",
  "id": 113694020,
  "nodes": [
    1288928832,
    1288927786,
    1288927266,
    1288928958,
    1288928992,
    1288928900
  ],
  "tags": {
    "highway": "residential",
    "name": "The Avenue"
  }
},
{
  "type": "way",
  "id": 113694021,
  "nodes": [
    1288929001,
    1288927836
  ],
  "tags": {
    "highway": "service"
  }
},
{
  "type": "way",
  "id": 113694022,
  "nodes": [
    1288928954,
    3834168023,
    1288928201,
    1288927769
  ],
  "tags": {
    "highway": "residential",
    "name": "Chalmers Court"
  }
},
{
  "type": "way",
  "id": 113694023,
  "nodes": [
    1288928558,
    1288929009,
    1288927466
  ],
  "tags": {
    "highway": "residential",
    "name": "Glen Aray View",
    "source": "OS_OpenData_StreetView"
  }
},
{
  "type": "way",
  "id": 113694026,
  "nodes": [
    18928910,
    18928911,
    1288928581,
    18928912,
    31006210,
    18928913,
    1912489847,
    18928915,
    1912489846,
    1288927871,
    31006211,
    18928916,
    1912489845,
    18928917,
    31006212,
    1912489844,
    18928918,
    18928919,
    18928920
  ],
  "tags": {
    "highway": "trunk",
    "maxspeed": "30 mph",
    "operator": "Transport Scotland",
    "ref": "A83",
    "source": "gps"
  }
},
{
  "type": "way",
  "id": 113694038,
  "nodes": [
    1288927052,
    1288928884,
    1288928395,
    1288927769,
    1288927257
  ],
  "tags": {
    "highway": "residential",
    "name": "Chalmers Court"
  }
},
{
  "type": "way",
  "id": 113694039,
  "nodes": [
    1288928660,
    1912489858,
    1288927937,
    1288927393,
    1288928991,
    1288928831,
    1288928199,
    1288927632,
    1288927582,
    1288927098,
    1288928533,
    1288927836
  ],
  "tags": {
    "highway": "unclassified"
  }
},
{
  "type": "way",
  "id": 113694040,
  "nodes": [
    18928893,
    1288927180,
    26234117
  ],
  "tags": {
    "highway": "trunk",
    "lanes": "2",
    "maxspeed": "30 mph",
    "name": "Front Street West",
    "operator": "Transport Scotland",
    "ref": "A83",
    "source": "gps"
  }
},
{
  "type": "way",
  "id": 113694042,
  "nodes": [
    1288928120,
    1288928661,
    1288927946,
    1288928992
  ],
  "tags": {
    "highway": "residential",
    "name": "Manse Crescent",
    "source": "OS_OpenData_StreetView"
  }
},
{
  "type": "way",
  "id": 113694043,
  "nodes": [
    1288928075,
    1288928949,
    1288927598,
    1288927108
  ],
  "tags": {
    "highway": "residential",
    "name": "Sinclair Avenue",
    "source": "OS_OpenData_StreetView"
  }
},
{
  "type": "way",
  "id": 113694044,
  "nodes": [
    1288927427,
    1288928998,
    1288928838,
    1288928232,
    1288927651
  ],
  "tags": {
    "highway": "service",
    "source": "Bing"
  }
},
{
  "type": "way",
  "id": 113694045,
  "nodes": [
    1288928171,
    1288927600,
    1288928896
  ],
  "tags": {
    "highway": "residential",
    "name": "Upper Riochan",
    "source": "OS_OpenData_StreetView"
  }
},
{
  "type": "way",
  "id": 113694047,
  "nodes": [
    1288928967,
    1288928781,
    1288928072,
    1288927519,
    1288929026,
    1288928342,
    1288928949
  ],
  "tags": {
    "highway": "residential",
    "name": "Foulis Road",
    "source": "OS_OpenData_StreetView"
  }
},
{
  "type": "way",
  "id": 113694049,
  "nodes": [
    420138667,
    1288927152,
    1288928912,
    1288928615,
    1288928580,
    1288927867,
    1288927651,
    2495130665,
    1288928866,
    1288928288,
    1288928108,
    1288927552,
    1288927063,
    1288928887,
    1288928428,
    1995135010,
    1288927780,
    1995135014,
    1288927264,
    1288928957,
    1288928749,
    1288928026,
    1288927485,
    1288927462,
    1288929008,
    1288928863,
    1288928279,
    1288927677,
    1288927188,
    1288928933,
    1288928654,
    1288927931,
    1288927386,
    1839657173,
    1288928600,
    1288928830,
    1288927132,
    1288928994,
    1288928834,
    1288927640,
    1288928600
  ],
  "tags": {
    "highway": "service",
    "source": "Bing"
  }
},
{
  "type": "way",
  "id": 113694050,
  "nodes": [
    1288927836,
    1288927299,
    1288928517,
    1288928171,
    1288928968,
    1288928786,
    1288928075,
    1288927521,
    3660974923,
    1288929027,
    1288928934,
    1288928811,
    5533582957,
    1288927108,
    1288928900
  ],
  "tags": {
    "highway": "residential",
    "name": "Barn Park",
    "source": "OS_OpenData_StreetView"
  }
},
{
  "type": "way",
  "id": 113694051,
  "nodes": [
    18928903,
    4547454171,
    1288928138,
    1288928094,
    3834034757,
    1288927539
  ],
  "tags": {
    "highway": "residential",
    "name": "Fisher Row"
  }
},
{
  "type": "way",
  "id": 113694054,
  "nodes": [
    1912489850,
    3833963560,
    1402373694,
    506980812
  ],
  "tags": {
    "highway": "trunk",
    "maxspeed": "30 mph",
    "name": "Main Street",
    "name:left": "Main Street East",
    "name:right": "Main Street West",
    "operator": "Transport Scotland",
    "ref": "A83"
  }
},
{
  "type": "way",
  "id": 113694056,
  "nodes": [
    1288927579,
    1288927066,
    1288928889,
    1288928443,
    1288927642,
    1288927273,
    1288928832
  ],
  "tags": {
    "highway": "service"
  }
},
{
  "type": "way",
  "id": 113694058,
  "nodes": [
    1288929009,
    1288928864,
    1288928281,
    1288927683
  ],
  "tags": {
    "highway": "residential",
    "name": "Glen Aray View",
    "source": "OS_OpenData_StreetView"
  }
},
{
  "type": "way",
  "id": 113694059,
  "nodes": [
    1288927477,
    1288929003,
    1288928857,
    1288928258,
    1288927661,
    1288927170,
    1288928927,
    1288928636,
    1288928591,
    1288927872,
    1288927345,
    1288928977,
    1288928815,
    1288928128,
    1288927555
  ],
  "tags": {
    "highway": "service"
  }
},
{
  "type": "way",
  "id": 113694061,
  "nodes": [
    1288927192,
    1288928934
  ],
  "tags": {
    "highway": "residential",
    "name": "Barn Brae",
    "source": "OS_OpenData_StreetView"
  }
},
{
  "type": "way",
  "id": 113694063,
  "nodes": [
    1288927429,
    4892410535,
    1288928342
  ],
  "tags": {
    "highway": "residential",
    "name": "Foulis Road",
    "source": "OS_OpenData_StreetView"
  }
},
{
  "type": "way",
  "id": 113694064,
  "nodes": [
    1288927977,
    1288928517
  ],
  "tags": {
    "highway": "residential",
    "name": "Higher Riochan",
    "source": "OS_OpenData_StreetView"
  }
},
{
  "type": "way",
  "id": 113694066,
  "nodes": [
    18928910,
    4896758600,
    1288927192,
    1288928976,
    1288928811
  ],
  "tags": {
    "highway": "residential",
    "name": "Barn Brae",
    "source": "OS_OpenData_StreetView"
  }
},
{
  "type": "way",
  "id": 113694070,
  "nodes": [
    1288927642,
    1288927143,
    1288928603,
    1288927881,
    1288927352,
    1288928979,
    2917844109
  ],
  "tags": {
    "highway": "service",
    "name": "Upper Avenue"
  }
},
{
  "type": "way",
  "id": 119311332,
  "nodes": [
    18928920,
    31006213,
    1912489843,
    19789202,
    31006214,
    19789204,
    31006215,
    19789205,
    1912489842,
    1912489841,
    31006216,
    19789206,
    31006217,
    1288927579,
    1288928152,
    1912489840,
    19789207,
    31006218,
    19789209,
    19789210,
    31006219,
    19789211,
    31006220,
    19789212,
    31006221,
    19789213,
    19789215,
    31006222,
    19789216,
    31006223,
    19789217,
    31006224,
    19789218,
    31006225,
    19789219,
    31006226,
    19789221,
    19789222,
    19789223,
    793168768,
    19789224,
    19789225,
    793168771,
    793168766,
    19789227,
    19789228,
    3741270939,
    31006227,
    3741271416,
    19789229,
    31006228,
    19789230,
    31006229,
    19789231,
    19789232,
    31006230,
    19789234,
    19789235,
    4258124245,
    31006231,
    19789236,
    31006232,
    19789237,
    19789238
  ],
  "tags": {
    "highway": "trunk",
    "maxspeed": "60 mph",
    "operator": "Transport Scotland",
    "ref": "A83",
    "source": "gps",
    "source:maxspeed": "UK:nsl_single"
  }
},
{
  "type": "way",
  "id": 119311345,
  "nodes": [
    1341008894,
    793168777,
    18928893
  ],
  "tags": {
    "highway": "trunk",
    "lanes": "2",
    "maxspeed": "30 mph",
    "name": "Old Military Road",
    "operator": "Transport Scotland",
    "ref": "A83",
    "source": "gps"
  }
},
{
  "type": "way",
  "id": 119311346,
  "nodes": [
    1341008899,
    18928886,
    2103349311
  ],
  "tags": {
    "highway": "trunk",
    "lanes": "2",
    "maxspeed": "40 mph",
    "name": "Old Military Road",
    "operator": "Transport Scotland",
    "ref": "A83",
    "source": "gps"
  }
},
{
  "type": "way",
  "id": 188881156,
  "nodes": [
    506988040,
    506979947
  ],
  "tags": {
    "highway": "unclassified",
    "name": "Church Square"
  }
},
{
  "type": "way",
  "id": 188881177,
  "nodes": [
    1995135013,
    1995135018,
    1995135016
  ],
  "tags": {
    "highway": "service",
    "service": "driveway"
  }
},
{
  "type": "way",
  "id": 188881182,
  "nodes": [
    1995135010,
    1995135011,
    1995135012,
    1995135013,
    1995135017,
    1995135015,
    1995135014
  ],
  "tags": {
    "highway": "service",
    "service": "driveway"
  }
},
{
  "type": "way",
  "id": 188881186,
  "nodes": [
    1995135024,
    1995135023,
    1995135022,
    1995135021,
    1995135020,
    1995135019,
    420138698
  ],
  "tags": {
    "highway": "service",
    "surface": "asphalt"
  }
},
{
  "type": "way",
  "id": 200345620,
  "nodes": [
    18928890,
    3658569585,
    18928891,
    31006271,
    18928892,
    1394453158,
    1288927205,
    31006272,
    1341008894
  ],
  "tags": {
    "highway": "trunk",
    "lanes": "2",
    "maxspeed": "40 mph",
    "name": "Old Military Road",
    "operator": "Transport Scotland",
    "ref": "A83",
    "source": "gps"
  }
},
{
  "type": "way",
  "id": 200345623,
  "nodes": [
    2103349311,
    18928887
  ],
  "tags": {
    "highway": "trunk",
    "lanes": "1",
    "maxspeed": "40 mph",
    "name": "Old Military Road",
    "operator": "Transport Scotland",
    "ref": "A83",
    "source": "gps"
  }
},
{
  "type": "way",
  "id": 200345851,
  "nodes": [
    26234118,
    3694908784,
    3694908778,
    1288927715,
    3694908775,
    1288928300,
    1288928954,
    415432895,
    1288928588,
    3694908821,
    1288928660,
    2103352499
  ],
  "tags": {
    "highway": "primary",
    "lanes": "2",
    "maxspeed": "30 mph",
    "ref": "A819",
    "source": "survey"
  }
},
{
  "type": "way",
  "id": 239507679,
  "nodes": [
    2472822880,
    2472822886,
    2472822881,
    2472822883
  ],
  "tags": {
    "highway": "service",
    "lanes": "1",
    "oneway": "yes"
  }
},
{
  "type": "way",
  "id": 239507680,
  "nodes": [
    5909497278,
    1288927052,
    4547454168,
    2472822891,
    2472822875,
    2472822878,
    2472822880,
    1288928757
  ],
  "tags": {
    "highway": "service",
    "name": "The Avenue",
    "oneway": "yes",
    "source": "OS_OpenData_StreetView"
  }
},
{
  "type": "way",
  "id": 239507681,
  "nodes": [
    2472822896,
    2472822895,
    2472822902,
    2472822876,
    2472822905,
    2472822887,
    2472822901,
    2472822891
  ],
  "tags": {
    "highway": "service",
    "oneway": "yes"
  }
},
{
  "type": "way",
  "id": 239507682,
  "nodes": [
    1288928757,
    2472822888,
    2472822879,
    2472822892
  ],
  "tags": {
    "highway": "service",
    "name": "The Avenue",
    "oneway": "yes",
    "source": "OS_OpenData_StreetView"
  }
},
{
  "type": "way",
  "id": 239507683,
  "nodes": [
    2472822875,
    2472822899,
    2472822885,
    2472822902
  ],
  "tags": {
    "highway": "service",
    "oneway": "yes"
  }
},
{
  "type": "way",
  "id": 239507684,
  "nodes": [
    1288928757,
    2472822877,
    3834189745,
    3834189746,
    2472822894,
    3834189747,
    2472822893,
    2472822898,
    2472822897,
    2472822890,
    2472822892,
    2472822900,
    2472822884,
    2472822896,
    2472822903,
    2472822878
  ],
  "tags": {
    "highway": "service",
    "name": "The Avenue",
    "oneway": "yes",
    "source": "OS_OpenData_StreetView"
  }
},
{
  "type": "way",
  "id": 239507685,
  "nodes": [
    1288927495,
    1288928037,
    1288928757
  ],
  "tags": {
    "highway": "service",
    "name": "The Avenue",
    "oneway": "yes",
    "source": "OS_OpenData_StreetView"
  }
},
{
  "type": "way",
  "id": 241943179,
  "nodes": [
    2495130665,
    2495130645,
    2495130667
  ],
  "tags": {
    "highway": "service"
  }
},
{
  "type": "way",
  "id": 241943181,
  "nodes": [
    2495130738,
    506993504
  ],
  "tags": {
    "highway": "path"
  }
},
{
  "type": "way",
  "id": 241943184,
  "nodes": [
    2495130658,
    2495130638,
    2495130698,
    2495130738,
    2495130678,
    2495130696,
    2495130751,
    2495130704
  ],
  "tags": {
    "highway": "path"
  }
},
{
  "type": "way",
  "id": 241943188,
  "nodes": [
    2495130653,
    2495130726,
    2495130724,
    2495130722,
    2495130721,
    2495130702,
    2495130699,
    2495130693,
    2495130682,
    2495130677,
    2495130689,
    2495130690,
    2495130697,
    2495130656,
    2495130733
  ],
  "tags": {
    "highway": "service"
  }
},
{
  "type": "way",
  "id": 241943199,
  "nodes": [
    1402373698,
    2495130753,
    2495130679,
    1288929002,
    2495130708,
    2495130688
  ],
  "tags": {
    "highway": "service",
    "service": "parking_aisle"
  }
},
{
  "type": "way",
  "id": 241943207,
  "nodes": [
    2495130688,
    2495130734,
    2495130635,
    2495130762,
    2495130732,
    2495130658,
    2495130704,
    2495130736,
    2495130764
  ],
  "tags": {
    "highway": "path"
  }
},
{
  "type": "way",
  "id": 271687169,
  "nodes": [
    2103352499,
    1288927427,
    1288928251,
    26234120,
    1288928875,
    26234121,
    1912489859,
    1288927659,
    1912489860,
    1288927166,
    1912489861,
    1912489862,
    26234122,
    1288928924,
    415432908,
    1288928622,
    26234123,
    1288927898,
    415432909,
    415432910,
    1288927366,
    26234124,
    415432911,
    1288928983,
    3472132763
  ],
  "tags": {
    "highway": "primary",
    "lanes": "2",
    "lit": "no",
    "maxspeed": "40 mph",
    "ref": "A819",
    "source": "survey"
  }
},
{
  "type": "way",
  "id": 361641222,
  "nodes": [
    3660974923,
    3660974924,
    3660975025,
    3660975026,
    3660975027,
    3660975028,
    2472822877
  ],
  "tags": {
    "highway": "service",
    "service": "alley"
  }
},
{
  "type": "way",
  "id": 365480941,
  "nodes": [
    3694908790,
    26234118
  ],
  "tags": {
    "foot": "no",
    "highway": "primary",
    "lanes": "1",
    "maxspeed": "30 mph",
    "ref": "A819",
    "source": "survey"
  }
},
{
  "type": "way",
  "id": 365480963,
  "nodes": [
    3694908788,
    3694908771,
    2472822889
  ],
  "tags": {
    "highway": "service"
  }
},
{
  "type": "way",
  "id": 365480965,
  "nodes": [
    3694908821,
    3694908939,
    3694908935,
    3694908820
  ],
  "tags": {
    "highway": "service"
  }
},
{
  "type": "way",
  "id": 365480967,
  "nodes": [
    3694908939,
    3694908941,
    3694908945,
    3694908944,
    3694908943,
    3694908942,
    3694908940,
    3694908941
  ],
  "tags": {
    "highway": "service"
  }
},
{
  "type": "way",
  "id": 380049924,
  "nodes": [
    1288928890,
    1288928459
  ],
  "tags": {
    "highway": "residential",
    "name": "Factory Land",
    "note:name": "Name: that's what it says on the sign !"
  }
},
{
  "type": "way",
  "id": 380049925,
  "nodes": [
    3833971393,
    1288928890
  ],
  "tags": {
    "highway": "residential",
    "name": "1-2 Ferryland",
    "note:name": "That's what it says on the sign"
  }
},
{
  "type": "way",
  "id": 380050955,
  "nodes": [
    1288928124,
    2495130653,
    3694908731,
    1288927072,
    3833971393
  ],
  "tags": {
    "highway": "residential",
    "name": "Quay Close"
  }
},
{
  "type": "way",
  "id": 380050956,
  "nodes": [
    1995135009,
    3833981320
  ],
  "tags": {
    "highway": "residential"
  }
},
{
  "type": "way",
  "id": 380052791,
  "nodes": [
    3834005280,
    3834047389,
    18928904,
    1288927357,
    18928905,
    2472822883,
    1288927495,
    1912489849,
    793168775,
    793168773,
    1912489848,
    18928907,
    18928909,
    18928910
  ],
  "tags": {
    "highway": "trunk",
    "maxspeed": "30 mph",
    "name": "Blacks Land",
    "operator": "Transport Scotland",
    "ref": "A83",
    "source": "gps"
  }
},
{
  "type": "way",
  "id": 380056034,
  "nodes": [
    3834034757,
    3834034758,
    3834034759
  ],
  "tags": {
    "highway": "service",
    "service": "driveway"
  }
},
{
  "type": "way",
  "id": 380057985,
  "nodes": [
    3834047388,
    3834047389
  ],
  "tags": {
    "highway": "residential",
    "name": "Cross Houses"
  }
},
{
  "type": "way",
  "id": 380069300,
  "nodes": [
    1288928954,
    3834163771
  ],
  "tags": {
    "highway": "service"
  }
},
{
  "type": "way",
  "id": 380069302,
  "nodes": [
    3834169257,
    3834169258,
    3834172742,
    3834163773,
    1288928954
  ],
  "tags": {
    "highway": "service"
  }
},
{
  "type": "way",
  "id": 380069303,
  "nodes": [
    3834163771,
    3834163772
  ],
  "tags": {
    "highway": "service",
    "tunnel": "building_passage"
  }
},
{
  "type": "way",
  "id": 380069304,
  "nodes": [
    3834163772,
    3834163773,
    1288927715
  ],
  "tags": {
    "highway": "service"
  }
},
{
  "type": "way",
  "id": 380070146,
  "nodes": [
    3834172740,
    3834172741,
    3834172742
  ],
  "tags": {
    "highway": "service",
    "service": "driveway"
  }
},
{
  "type": "way",
  "id": 411393264,
  "nodes": [
    420138699,
    420138700,
    420138701,
    420138702,
    1393867180,
    1393867181,
    1393867174,
    420138700
  ],
  "tags": {
    "highway": "service",
    "service": "parking_aisle"
  }
},
{
  "type": "way",
  "id": 411393265,
  "nodes": [
    1288928588,
    1288929014,
    4130716184,
    4130716183,
    4130716187,
    4130716186,
    4130716185
  ],
  "tags": {
    "highway": "unclassified"
  }
},
{
  "type": "way",
  "id": 458796836,
  "nodes": [
    4547454166,
    4547454167,
    4547454171
  ],
  "tags": {
    "highway": "service"
  }
},
{
  "type": "way",
  "id": 458796837,
  "nodes": [
    4547454169,
    5909497163,
    3833963558
  ],
  "tags": {
    "highway": "service"
  }
},
{
  "type": "way",
  "id": 577151594,
  "nodes": [
    1912489847,
    5533582948,
    5533582949,
    5533582950,
    5533582951,
    5533582952,
    5533582953,
    5533582954,
    5533582955,
    5533582956,
    5533582957
  ],
  "tags": {
    "highway": "service"
  }
},
{
  "type": "way",
  "id": 577151595,
  "nodes": [
    5533582952,
    5533582958,
    5533582959
  ],
  "tags": {
    "highway": "service",
    "service": "parking_aisle"
  }
},
{
  "type": "way",
  "id": 625924029,
  "nodes": [
    5909497163,
    5909497162
  ],
  "tags": {
    "highway": "service"
  }
},
{
  "type": "way",
  "id": 625924048,
  "nodes": [
    5909497277,
    5909497278
  ],
  "tags": {
    "highway": "service",
    "layer": "-1",
    "name": "The Avenue",
    "oneway": "yes",
    "source": "OS_OpenData_StreetView",
    "tunnel": "building_passage"
  }
},
{
  "type": "way",
  "id": 625924049,
  "nodes": [
    2472822889,
    5909497277
  ],
  "tags": {
    "highway": "service",
    "name": "The Avenue",
    "oneway": "yes",
    "source": "OS_OpenData_StreetView"
  }
},
{
  "type": "way",
  "id": 691444838,
  "nodes": [
    2917844109,
    1288928817,
    6488171536,
    1288928134,
    1288927568,
    1288927538,
    1288927049,
    1288928883,
    1288928372,
    1288927766,
    1288927253,
    1288928953,
    1288928731,
    1288928016,
    1288927477,
    1288929013,
    1288928869,
    1288928298,
    1288927709,
    1288927555,
    1288927201,
    1288928937,
    1288929020,
    1288928875,
    1288928820,
    1288928288,
    1288927091
  ],
  "tags": {
    "highway": "service",
    "name": "Upper Avenue"
  }
},
{
  "type": "node",
  "id": 19789237,
  "lat": 56.1962084,
  "lon": -5.1325157
},
{
  "type": "node",
  "id": 19789238,
  "lat": 56.1960803,
  "lon": -5.1330164
},
{
  "type": "node",
  "id": 19789235,
  "lat": 56.1986581,
  "lon": -5.1254024
},
{
  "type": "node",
  "id": 19789236,
  "lat": 56.1983482,
  "lon": -5.1267106
},
{
  "type": "node",
  "id": 31006231,
  "lat": 56.1985220,
  "lon": -5.1261641
},
{
  "type": "node",
  "id": 31006232,
  "lat": 56.1971138,
  "lon": -5.1300069
},
{
  "type": "node",
  "id": 4258124245,
  "lat": 56.1986023,
  "lon": -5.1257147
},
{
  "type": "node",
  "id": 19789231,
  "lat": 56.1999522,
  "lon": -5.1194471
},
{
  "type": "node",
  "id": 19789232,
  "lat": 56.1995847,
  "lon": -5.1204957
},
{
  "type": "node",
  "id": 19789234,
  "lat": 56.1991400,
  "lon": -5.1225263
},
{
  "type": "node",
  "id": 31006230,
  "lat": 56.1993367,
  "lon": -5.1214679
},
{
  "type": "node",
  "id": 19789230,
  "lat": 56.2011134,
  "lon": -5.1136432
},
{
  "type": "node",
  "id": 31006228,
  "lat": 56.2014366,
  "lon": -5.1119248
},
{
  "type": "node",
  "id": 31006229,
  "lat": 56.2006668,
  "lon": -5.1159544
},
{
  "type": "node",
  "id": 19789227,
  "lat": 56.2046584,
  "lon": -5.1059038
},
{
  "type": "node",
  "id": 19789228,
  "lat": 56.2037388,
  "lon": -5.1067824
},
{
  "type": "node",
  "id": 19789229,
  "lat": 56.2016997,
  "lon": -5.1108090
},
{
  "type": "node",
  "id": 31006227,
  "lat": 56.2026220,
  "lon": -5.1088173
},
{
  "type": "node",
  "id": 3741270939,
  "lat": 56.2036082,
  "lon": -5.1070203
},
{
  "type": "node",
  "id": 3741271416,
  "lat": 56.2023535,
  "lon": -5.1093972
},
{
  "type": "node",
  "id": 793168766,
  "lat": 56.2055924,
  "lon": -5.1049967
},
{
  "type": "node",
  "id": 793168771,
  "lat": 56.2066793,
  "lon": -5.1041288
},
{
  "type": "node",
  "id": 19789219,
  "lat": 56.2112888,
  "lon": -5.0988511
},
{
  "type": "node",
  "id": 19789221,
  "lat": 56.2105167,
  "lon": -5.1006809
},
{
  "type": "node",
  "id": 19789222,
  "lat": 56.2096883,
  "lon": -5.1021475
},
{
  "type": "node",
  "id": 19789223,
  "lat": 56.2090761,
  "lon": -5.1030605
},
{
  "type": "node",
  "id": 19789224,
  "lat": 56.2082138,
  "lon": -5.1038011
},
{
  "type": "node",
  "id": 19789225,
  "lat": 56.2072179,
  "lon": -5.1039311
},
{
  "type": "node",
  "id": 31006226,
  "lat": 56.2109155,
  "lon": -5.0997782
},
{
  "type": "node",
  "id": 793168768,
  "lat": 56.2086006,
  "lon": -5.1035661
},
{
  "type": "node",
  "id": 19789216,
  "lat": 56.2134765,
  "lon": -5.0937945
},
{
  "type": "node",
  "id": 19789217,
  "lat": 56.2126223,
  "lon": -5.0951687
},
{
  "type": "node",
  "id": 19789218,
  "lat": 56.2119712,
  "lon": -5.0968899
},
{
  "type": "node",
  "id": 31006223,
  "lat": 56.2129970,
  "lon": -5.0944650
},
{
  "type": "node",
  "id": 31006224,
  "lat": 56.2122677,
  "lon": -5.0960474
},
{
  "type": "node",
  "id": 31006225,
  "lat": 56.2115735,
  "lon": -5.0980893
},
{
  "type": "node",
  "id": 19789213,
  "lat": 56.2155090,
  "lon": -5.0921483
},
{
  "type": "node",
  "id": 19789215,
  "lat": 56.2143167,
  "lon": -5.0929215
},
{
  "type": "node",
  "id": 31006222,
  "lat": 56.2139974,
  "lon": -5.0931531
},
{
  "type": "node",
  "id": 19789206,
  "lat": 56.2200387,
  "lon": -5.0860359
},
{
  "type": "node",
  "id": 19789207,
  "lat": 56.2195113,
  "lon": -5.0880172
},
{
  "type": "node",
  "id": 19789209,
  "lat": 56.2190405,
  "lon": -5.0888000
},
{
  "type": "node",
  "id": 19789210,
  "lat": 56.2184968,
  "lon": -5.0896499
},
{
  "type": "node",
  "id": 19789211,
  "lat": 56.2179582,
  "lon": -5.0905118
},
{
  "type": "node",
  "id": 19789212,
  "lat": 56.2171722,
  "lon": -5.0910615
},
{
  "type": "node",
  "id": 31006217,
  "lat": 56.2199865,
  "lon": -5.0864601
},
{
  "type": "node",
  "id": 31006218,
  "lat": 56.2193871,
  "lon": -5.0882220
},
{
  "type": "node",
  "id": 31006219,
  "lat": 56.2181879,
  "lon": -5.0901571
},
{
  "type": "node",
  "id": 31006220,
  "lat": 56.2175860,
  "lon": -5.0907647
},
{
  "type": "node",
  "id": 31006221,
  "lat": 56.2164885,
  "lon": -5.0915197
},
{
  "type": "node",
  "id": 1288927579,
  "lat": 56.2198795,
  "lon": -5.0870002
},
{
  "type": "node",
  "id": 1288928152,
  "lat": 56.2197758,
  "lon": -5.0873694
},
{
  "type": "node",
  "id": 1912489840,
  "lat": 56.2196572,
  "lon": -5.0877037
},
{
  "type": "node",
  "id": 31006216,
  "lat": 56.2200647,
  "lon": -5.0855752
},
{
  "type": "node",
  "id": 1288927352,
  "lat": 56.2220841,
  "lon": -5.0929170
},
{
  "type": "node",
  "id": 1288928134,
  "lat": 56.2229729,
  "lon": -5.0925826
},
{
  "type": "node",
  "id": 1288928817,
  "lat": 56.2222584,
  "lon": -5.0931887
},
{
  "type": "node",
  "id": 1288928979,
  "lat": 56.2221770,
  "lon": -5.0931887
},
{
  "type": "node",
  "id": 2917844109,
  "lat": 56.2222231,
  "lon": -5.0931887
},
{
  "type": "node",
  "id": 6488171536,
  "lat": 56.2226827,
  "lon": -5.0928288
},
{
  "type": "node",
  "id": 1288927049,
  "lat": 56.2253198,
  "lon": -5.0899600
},
{
  "type": "node",
  "id": 1288927066,
  "lat": 56.2201215,
  "lon": -5.0874024
},
{
  "type": "node",
  "id": 1288927143,
  "lat": 56.2205574,
  "lon": -5.0869386
},
{
  "type": "node",
  "id": 1288927273,
  "lat": 56.2205926,
  "lon": -5.0865157
},
{
  "type": "node",
  "id": 1288927538,
  "lat": 56.2248609,
  "lon": -5.0907541
},
{
  "type": "node",
  "id": 1288927568,
  "lat": 56.2244310,
  "lon": -5.0913706
},
{
  "type": "node",
  "id": 1288927642,
  "lat": 56.2205133,
  "lon": -5.0868234
},
{
  "type": "node",
  "id": 1288927766,
  "lat": 56.2262317,
  "lon": -5.0889360
},
{
  "type": "node",
  "id": 1288927881,
  "lat": 56.2215672,
  "lon": -5.0908493
},
{
  "type": "node",
  "id": 1288928372,
  "lat": 56.2259645,
  "lon": -5.0890927
},
{
  "type": "node",
  "id": 1288928443,
  "lat": 56.2202707,
  "lon": -5.0872679
},
{
  "type": "node",
  "id": 1288928603,
  "lat": 56.2210905,
  "lon": -5.0890689
},
{
  "type": "node",
  "id": 1288928883,
  "lat": 56.2257438,
  "lon": -5.0893121
},
{
  "type": "node",
  "id": 1288928889,
  "lat": 56.2202049,
  "lon": -5.0873716
},
{
  "type": "node",
  "id": 1288927253,
  "lat": 56.2268591,
  "lon": -5.0886016
},
{
  "type": "node",
  "id": 1288927477,
  "lat": 56.2291186,
  "lon": -5.0862088
},
{
  "type": "node",
  "id": 1288928016,
  "lat": 56.2284448,
  "lon": -5.0869716
},
{
  "type": "node",
  "id": 1288928731,
  "lat": 56.2283693,
  "lon": -5.0871492
},
{
  "type": "node",
  "id": 1288928857,
  "lat": 56.2296219,
  "lon": -5.0856766
},
{
  "type": "node",
  "id": 1288928953,
  "lat": 56.2277246,
  "lon": -5.0879538
},
{
  "type": "node",
  "id": 1288929003,
  "lat": 56.2292888,
  "lon": -5.0860832
},
{
  "type": "node",
  "id": 1288929013,
  "lat": 56.2292347,
  "lon": -5.0858744
},
{
  "type": "node",
  "id": 415432911,
  "lat": 56.2408930,
  "lon": -5.0858291
},
{
  "type": "node",
  "id": 1288928983,
  "lat": 56.2412184,
  "lon": -5.0868132
},
{
  "type": "node",
  "id": 3472132763,
  "lat": 56.2415705,
  "lon": -5.0875896
},
{
  "type": "node",
  "id": 18928919,
  "lat": 56.2225855,
  "lon": -5.0800566
},
{
  "type": "node",
  "id": 18928920,
  "lat": 56.2222382,
  "lon": -5.0812912
},
{
  "type": "node",
  "id": 19789202,
  "lat": 56.2213147,
  "lon": -5.0824199
},
{
  "type": "node",
  "id": 19789204,
  "lat": 56.2204795,
  "lon": -5.0832507
},
{
  "type": "node",
  "id": 19789205,
  "lat": 56.2202113,
  "lon": -5.0838674
},
{
  "type": "node",
  "id": 31006213,
  "lat": 56.2220836,
  "lon": -5.0816469
},
{
  "type": "node",
  "id": 31006214,
  "lat": 56.2207252,
  "lon": -5.0829472
},
{
  "type": "node",
  "id": 31006215,
  "lat": 56.2203283,
  "lon": -5.0835412
},
{
  "type": "node",
  "id": 1288927108,
  "lat": 56.2248740,
  "lon": -5.0791792
},
{
  "type": "node",
  "id": 1288927266,
  "lat": 56.2232376,
  "lon": -5.0805825
},
{
  "type": "node",
  "id": 1288927429,
  "lat": 56.2261364,
  "lon": -5.0796432
},
{
  "type": "node",
  "id": 1288927466,
  "lat": 56.2242525,
  "lon": -5.0812992
},
{
  "type": "node",
  "id": 1288927519,
  "lat": 56.2256695,
  "lon": -5.0798946
},
{
  "type": "node",
  "id": 1288927598,
  "lat": 56.2249111,
  "lon": -5.0793757
},
{
  "type": "node",
  "id": 1288927600,
  "lat": 56.2251074,
  "lon": -5.0816708
},
{
  "type": "node",
  "id": 1288927683,
  "lat": 56.2248183,
  "lon": -5.0811990
},
{
  "type": "node",
  "id": 1288927786,
  "lat": 56.2230377,
  "lon": -5.0809279
},
{
  "type": "node",
  "id": 1288927826,
  "lat": 56.2248486,
  "lon": -5.0814247
},
{
  "type": "node",
  "id": 1288927946,
  "lat": 56.2238786,
  "lon": -5.0795034
},
{
  "type": "node",
  "id": 1288928072,
  "lat": 56.2253483,
  "lon": -5.0804029
},
{
  "type": "node",
  "id": 1288928281,
  "lat": 56.2246845,
  "lon": -5.0814611
},
{
  "type": "node",
  "id": 1288928342,
  "lat": 56.2260009,
  "lon": -5.0795629
},
{
  "type": "node",
  "id": 1288928522,
  "lat": 56.2248814,
  "lon": -5.0815798
},
{
  "type": "node",
  "id": 1288928558,
  "lat": 56.2245575,
  "lon": -5.0823350
},
{
  "type": "node",
  "id": 1288928661,
  "lat": 56.2238528,
  "lon": -5.0792675
},
{
  "type": "node",
  "id": 1288928781,
  "lat": 56.2251847,
  "lon": -5.0805740
},
{
  "type": "node",
  "id": 1288928832,
  "lat": 56.2221387,
  "lon": -5.0829673
},
{
  "type": "node",
  "id": 1288928864,
  "lat": 56.2246072,
  "lon": -5.0816002
},
{
  "type": "node",
  "id": 1288928896,
  "lat": 56.2249765,
  "lon": -5.0817082
},
{
  "type": "node",
  "id": 1288928900,
  "lat": 56.2246304,
  "lon": -5.0793821
},
{
  "type": "node",
  "id": 1288928958,
  "lat": 56.2234309,
  "lon": -5.0804036
},
{
  "type": "node",
  "id": 1288928967,
  "lat": 56.2247592,
  "lon": -5.0808209
},
{
  "type": "node",
  "id": 1288928992,
  "lat": 56.2239985,
  "lon": -5.0799075
},
{
  "type": "node",
  "id": 1288929009,
  "lat": 56.2243968,
  "lon": -5.0818168
},
{
  "type": "node",
  "id": 1288929026,
  "lat": 56.2258183,
  "lon": -5.0797312
},
{
  "type": "node",
  "id": 1912489841,
  "lat": 56.2200746,
  "lon": -5.0847455
},
{
  "type": "node",
  "id": 1912489842,
  "lat": 56.2201189,
  "lon": -5.0842631
},
{
  "type": "node",
  "id": 1912489843,
  "lat": 56.2218760,
  "lon": -5.0819048
},
{
  "type": "node",
  "id": 4892410535,
  "lat": 56.2260236,
  "lon": -5.0796152
},
{
  "type": "node",
  "id": 4896758729,
  "lat": 56.2246213,
  "lon": -5.0799876
},
{
  "type": "node",
  "id": 4896758730,
  "lat": 56.2245687,
  "lon": -5.0796008
},
{
  "type": "node",
  "id": 18928909,
  "lat": 56.2261720,
  "lon": -5.0767369
},
{
  "type": "node",
  "id": 18928910,
  "lat": 56.2255907,
  "lon": -5.0768856
},
{
  "type": "node",
  "id": 18928911,
  "lat": 56.2252856,
  "lon": -5.0769023
},
{
  "type": "node",
  "id": 18928912,
  "lat": 56.2248650,
  "lon": -5.0769990
},
{
  "type": "node",
  "id": 18928913,
  "lat": 56.2245534,
  "lon": -5.0773591
},
{
  "type": "node",
  "id": 18928915,
  "lat": 56.2242757,
  "lon": -5.0777946
},
{
  "type": "node",
  "id": 18928916,
  "lat": 56.2235452,
  "lon": -5.0779421
},
{
  "type": "node",
  "id": 18928917,
  "lat": 56.2232514,
  "lon": -5.0781514
},
{
  "type": "node",
  "id": 18928918,
  "lat": 56.2229484,
  "lon": -5.0787806
},
{
  "type": "node",
  "id": 31006210,
  "lat": 56.2246861,
  "lon": -5.0771543
},
{
  "type": "node",
  "id": 31006211,
  "lat": 56.2236891,
  "lon": -5.0779224
},
{
  "type": "node",
  "id": 31006212,
  "lat": 56.2231188,
  "lon": -5.0783299
},
{
  "type": "node",
  "id": 1288927192,
  "lat": 56.2256246,
  "lon": -5.0777245
},
{
  "type": "node",
  "id": 1288927521,
  "lat": 56.2262554,
  "lon": -5.0779901
},
{
  "type": "node",
  "id": 1288927871,
  "lat": 56.2240314,
  "lon": -5.0779211
},
{
  "type": "node",
  "id": 1288928075,
  "lat": 56.2263833,
  "lon": -5.0781345
},
{
  "type": "node",
  "id": 1288928120,
  "lat": 56.2240091,
  "lon": -5.0789824
},
{
  "type": "node",
  "id": 1288928581,
  "lat": 56.2250395,
  "lon": -5.0769213
},
{
  "type": "node",
  "id": 1288928786,
  "lat": 56.2264862,
  "lon": -5.0782744
},
{
  "type": "node",
  "id": 1288928811,
  "lat": 56.2256916,
  "lon": -5.0784449
},
{
  "type": "node",
  "id": 1288928934,
  "lat": 56.2260626,
  "lon": -5.0780979
},
{
  "type": "node",
  "id": 1288928949,
  "lat": 56.2257644,
  "lon": -5.0786855
},
{
  "type": "node",
  "id": 1288928976,
  "lat": 56.2256531,
  "lon": -5.0780697
},
{
  "type": "node",
  "id": 1288929027,
  "lat": 56.2261275,
  "lon": -5.0780329
},
{
  "type": "node",
  "id": 1912489844,
  "lat": 56.2230208,
  "lon": -5.0785383
},
{
  "type": "node",
  "id": 1912489845,
  "lat": 56.2233969,
  "lon": -5.0780361
},
{
  "type": "node",
  "id": 1912489846,
  "lat": 56.2241295,
  "lon": -5.0779071
},
{
  "type": "node",
  "id": 1912489847,
  "lat": 56.2243745,
  "lon": -5.0776804
},
{
  "type": "node",
  "id": 3660974923,
  "lat": 56.2262240,
  "lon": -5.0780006
},
{
  "type": "node",
  "id": 3660974924,
  "lat": 56.2265116,
  "lon": -5.0777273
},
{
  "type": "node",
  "id": 4896758600,
  "lat": 56.2255971,
  "lon": -5.0772719
},
{
  "type": "node",
  "id": 5533582948,
  "lat": 56.2243980,
  "lon": -5.0778214
},
{
  "type": "node",
  "id": 5533582949,
  "lat": 56.2244374,
  "lon": -5.0779107
},
{
  "type": "node",
  "id": 5533582950,
  "lat": 56.2245093,
  "lon": -5.0779477
},
{
  "type": "node",
  "id": 5533582951,
  "lat": 56.2246190,
  "lon": -5.0779046
},
{
  "type": "node",
  "id": 5533582952,
  "lat": 56.2247697,
  "lon": -5.0777998
},
{
  "type": "node",
  "id": 5533582953,
  "lat": 56.2248160,
  "lon": -5.0778645
},
{
  "type": "node",
  "id": 5533582954,
  "lat": 56.2248879,
  "lon": -5.0780001
},
{
  "type": "node",
  "id": 5533582955,
  "lat": 56.2249615,
  "lon": -5.0784006
},
{
  "type": "node",
  "id": 5533582956,
  "lat": 56.2250181,
  "lon": -5.0787457
},
{
  "type": "node",
  "id": 5533582957,
  "lat": 56.2251008,
  "lon": -5.0789755
},
{
  "type": "node",
  "id": 5533582958,
  "lat": 56.2247783,
  "lon": -5.0776458
},
{
  "type": "node",
  "id": 5533582959,
  "lat": 56.2247217,
  "lon": -5.0773007
},
{
  "type": "node",
  "id": 1288927098,
  "lat": 56.2279706,
  "lon": -5.0808424
},
{
  "type": "node",
  "id": 1288927170,
  "lat": 56.2306318,
  "lon": -5.0850513
},
{
  "type": "node",
  "id": 1288927201,
  "lat": 56.2315696,
  "lon": -5.0829905
},
{
  "type": "node",
  "id": 1288927299,
  "lat": 56.2274984,
  "lon": -5.0815892
},
{
  "type": "node",
  "id": 1288927345,
  "lat": 56.2310105,
  "lon": -5.0850102
},
{
  "type": "node",
  "id": 1288927393,
  "lat": 56.2288674,
  "lon": -5.0806930
},
{
  "type": "node",
  "id": 1288927555,
  "lat": 56.2314378,
  "lon": -5.0831486
},
{
  "type": "node",
  "id": 1288927582,
  "lat": 56.2280764,
  "lon": -5.0805456
},
{
  "type": "node",
  "id": 1288927632,
  "lat": 56.2282296,
  "lon": -5.0803899
},
{
  "type": "node",
  "id": 1288927661,
  "lat": 56.2305595,
  "lon": -5.0850445
},
{
  "type": "node",
  "id": 1288927709,
  "lat": 56.2313257,
  "lon": -5.0832831
},
{
  "type": "node",
  "id": 1288927836,
  "lat": 56.2276238,
  "lon": -5.0818901
},
{
  "type": "node",
  "id": 1288927872,
  "lat": 56.2309553,
  "lon": -5.0851198
},
{
  "type": "node",
  "id": 1288927937,
  "lat": 56.2289456,
  "lon": -5.0806708
},
{
  "type": "node",
  "id": 1288927977,
  "lat": 56.2266921,
  "lon": -5.0816437
},
{
  "type": "node",
  "id": 1288928128,
  "lat": 56.2313969,
  "lon": -5.0833976
},
{
  "type": "node",
  "id": 1288928171,
  "lat": 56.2270513,
  "lon": -5.0801649
},
{
  "type": "node",
  "id": 1288928199,
  "lat": 56.2283731,
  "lon": -5.0803332
},
{
  "type": "node",
  "id": 1288928251,
  "lat": 56.2330803,
  "lon": -5.0795136
},
{
  "type": "node",
  "id": 1288928258,
  "lat": 56.2303683,
  "lon": -5.0851523
},
{
  "type": "node",
  "id": 1288928298,
  "lat": 56.2305939,
  "lon": -5.0844325
},
{
  "type": "node",
  "id": 1288928517,
  "lat": 56.2272671,
  "lon": -5.0808523
},
{
  "type": "node",
  "id": 1288928533,
  "lat": 56.2278960,
  "lon": -5.0816321
},
{
  "type": "node",
  "id": 1288928591,
  "lat": 56.2308735,
  "lon": -5.0851438
},
{
  "type": "node",
  "id": 1288928636,
  "lat": 56.2307764,
  "lon": -5.0852259
},
{
  "type": "node",
  "id": 1288928815,
  "lat": 56.2312408,
  "lon": -5.0839009
},
{
  "type": "node",
  "id": 1288928831,
  "lat": 56.2285505,
  "lon": -5.0803721
},
{
  "type": "node",
  "id": 1288928869,
  "lat": 56.2296007,
  "lon": -5.0852788
},
{
  "type": "node",
  "id": 1288928927,
  "lat": 56.2306908,
  "lon": -5.0851198
},
{
  "type": "node",
  "id": 1288928937,
  "lat": 56.2328815,
  "lon": -5.0814636
},
{
  "type": "node",
  "id": 1288928968,
  "lat": 56.2268030,
  "lon": -5.0793145
},
{
  "type": "node",
  "id": 1288928977,
  "lat": 56.2311571,
  "lon": -5.0842364
},
{
  "type": "node",
  "id": 1288928991,
  "lat": 56.2287732,
  "lon": -5.0806745
},
{
  "type": "node",
  "id": 1288929001,
  "lat": 56.2272806,
  "lon": -5.0823603
},
{
  "type": "node",
  "id": 18928893,
  "lat": 56.2321952,
  "lon": -5.0738756
},
{
  "type": "node",
  "id": 18928894,
  "lat": 56.2314525,
  "lon": -5.0725335
},
{
  "type": "node",
  "id": 18928903,
  "lat": 56.2294039,
  "lon": -5.0739583
},
{
  "type": "node",
  "id": 18928904,
  "lat": 56.2289648,
  "lon": -5.0747486
},
{
  "type": "node",
  "id": 18928905,
  "lat": 56.2285053,
  "lon": -5.0755321
},
{
  "type": "node",
  "id": 18928907,
  "lat": 56.2272554,
  "lon": -5.0764406
},
{
  "type": "node",
  "id": 26234117,
  "lat": 56.2319442,
  "lon": -5.0737429
},
{
  "type": "node",
  "id": 26234118,
  "lat": 56.2317648,
  "lon": -5.0741071
},
{
  "type": "node",
  "id": 31006238,
  "lat": 56.2317626,
  "lon": -5.0734726
},
{
  "type": "node",
  "id": 31006272,
  "lat": 56.2328005,
  "lon": -5.0737147
},
{
  "type": "node",
  "id": 415432895,
  "lat": 56.2316736,
  "lon": -5.0750009
},
{
  "type": "node",
  "id": 420138663,
  "lat": 56.2322135,
  "lon": -5.0741670
},
{
  "type": "node",
  "id": 420138665,
  "lat": 56.2322638,
  "lon": -5.0743569
},
{
  "type": "node",
  "id": 420138667,
  "lat": 56.2323426,
  "lon": -5.0745737
},
{
  "type": "node",
  "id": 420138668,
  "lat": 56.2325145,
  "lon": -5.0747279
},
{
  "type": "node",
  "id": 420138670,
  "lat": 56.2327488,
  "lon": -5.0748959
},
{
  "type": "node",
  "id": 420138671,
  "lat": 56.2329221,
  "lon": -5.0749084
},
{
  "type": "node",
  "id": 420138673,
  "lat": 56.2331439,
  "lon": -5.0748460
},
{
  "type": "node",
  "id": 506979164,
  "lat": 56.2298778,
  "lon": -5.0735434
},
{
  "type": "node",
  "id": 506979939,
  "lat": 56.2302974,
  "lon": -5.0734558
},
{
  "type": "node",
  "id": 506979945,
  "lat": 56.2302065,
  "lon": -5.0729538
},
{
  "type": "node",
  "id": 506979947,
  "lat": 56.2300597,
  "lon": -5.0730176
},
{
  "type": "node",
  "id": 506979949,
  "lat": 56.2299626,
  "lon": -5.0731705
},
{
  "type": "node",
  "id": 506979952,
  "lat": 56.2299247,
  "lon": -5.0733140
},
{
  "type": "node",
  "id": 506979954,
  "lat": 56.2299814,
  "lon": -5.0736014
},
{
  "type": "node",
  "id": 506979955,
  "lat": 56.2300843,
  "lon": -5.0736210
},
{
  "type": "node",
  "id": 506980812,
  "lat": 56.2304054,
  "lon": -5.0730626
},
{
  "type": "node",
  "id": 506993504,
  "lat": 56.2316668,
  "lon": -5.0732262
},
{
  "type": "node",
  "id": 793168773,
  "lat": 56.2277137,
  "lon": -5.0762952
},
{
  "type": "node",
  "id": 793168775,
  "lat": 56.2279094,
  "lon": -5.0761657
},
{
  "type": "node",
  "id": 793168777,
  "lat": 56.2324093,
  "lon": -5.0738237
},
{
  "type": "node",
  "id": 1288927052,
  "lat": 56.2306108,
  "lon": -5.0741453
},
{
  "type": "node",
  "id": 1288927152,
  "lat": 56.2324930,
  "lon": -5.0751092
},
{
  "type": "node",
  "id": 1288927180,
  "lat": 56.2320308,
  "lon": -5.0738578
},
{
  "type": "node",
  "id": 1288927205,
  "lat": 56.2331493,
  "lon": -5.0735913
},
{
  "type": "node",
  "id": 1288927257,
  "lat": 56.2308855,
  "lon": -5.0753643
},
{
  "type": "node",
  "id": 1288927309,
  "lat": 56.2302029,
  "lon": -5.0735651
},
{
  "type": "node",
  "id": 1288927357,
  "lat": 56.2287174,
  "lon": -5.0751914
},
{
  "type": "node",
  "id": 1288927427,
  "lat": 56.2327517,
  "lon": -5.0784605
},
{
  "type": "node",
  "id": 1288927495,
  "lat": 56.2282995,
  "lon": -5.0758069
},
{
  "type": "node",
  "id": 1288927539,
  "lat": 56.2295789,
  "lon": -5.0725775
},
{
  "type": "node",
  "id": 1288927715,
  "lat": 56.2316977,
  "lon": -5.0743692
},
{
  "type": "node",
  "id": 1288927769,
  "lat": 56.2309982,
  "lon": -5.0752519
},
{
  "type": "node",
  "id": 1288928037,
  "lat": 56.2283779,
  "lon": -5.0760094
},
{
  "type": "node",
  "id": 1288928094,
  "lat": 56.2294130,
  "lon": -5.0730979
},
{
  "type": "node",
  "id": 1288928138,
  "lat": 56.2292893,
  "lon": -5.0735519
},
{
  "type": "node",
  "id": 1288928201,
  "lat": 56.2310593,
  "lon": -5.0754490
},
{
  "type": "node",
  "id": 1288928300,
  "lat": 56.2316468,
  "lon": -5.0746563
},
{
  "type": "node",
  "id": 1288928395,
  "lat": 56.2309030,
  "lon": -5.0749898
},
{
  "type": "node",
  "id": 1288928588,
  "lat": 56.2317877,
  "lon": -5.0753986
},
{
  "type": "node",
  "id": 1288928615,
  "lat": 56.2331215,
  "lon": -5.0766483
},
{
  "type": "node",
  "id": 1288928660,
  "lat": 56.2324239,
  "lon": -5.0773953
},
{
  "type": "node",
  "id": 1288928757,
  "lat": 56.2283988,
  "lon": -5.0760868
},
{
  "type": "node",
  "id": 1288928884,
  "lat": 56.2308019,
  "lon": -5.0747704
},
{
  "type": "node",
  "id": 1288928912,
  "lat": 56.2328971,
  "lon": -5.0761375
},
{
  "type": "node",
  "id": 1288928954,
  "lat": 56.2316631,
  "lon": -5.0748816
},
{
  "type": "node",
  "id": 1288929014,
  "lat": 56.2312955,
  "lon": -5.0759652
},
{
  "type": "node",
  "id": 1341008894,
  "lat": 56.2326275,
  "lon": -5.0737630
},
{
  "type": "node",
  "id": 1402373704,
  "lat": 56.2315420,
  "lon": -5.0728286
},
{
  "type": "node",
  "id": 1912489848,
  "lat": 56.2275180,
  "lon": -5.0763815
},
{
  "type": "node",
  "id": 1912489849,
  "lat": 56.2281379,
  "lon": -5.0759954
},
{
  "type": "node",
  "id": 1912489858,
  "lat": 56.2315170,
  "lon": -5.0782391
},
{
  "type": "node",
  "id": 2103352499,
  "lat": 56.2325636,
  "lon": -5.0778493
},
{
  "type": "node",
  "id": 2472822875,
  "lat": 56.2291571,
  "lon": -5.0754301
},
{
  "type": "node",
  "id": 2472822876,
  "lat": 56.2295895,
  "lon": -5.0752826
},
{
  "type": "node",
  "id": 2472822877,
  "lat": 56.2276662,
  "lon": -5.0767223
},
{
  "type": "node",
  "id": 2472822878,
  "lat": 56.2286755,
  "lon": -5.0758539
},
{
  "type": "node",
  "id": 2472822879,
  "lat": 56.2284652,
  "lon": -5.0763183
},
{
  "type": "node",
  "id": 2472822880,
  "lat": 56.2284554,
  "lon": -5.0760379
},
{
  "type": "node",
  "id": 2472822881,
  "lat": 56.2284055,
  "lon": -5.0758851
},
{
  "type": "node",
  "id": 2472822883,
  "lat": 56.2283551,
  "lon": -5.0757229
},
{
  "type": "node",
  "id": 2472822884,
  "lat": 56.2287762,
  "lon": -5.0761779
},
{
  "type": "node",
  "id": 2472822885,
  "lat": 56.2291914,
  "lon": -5.0755630
},
{
  "type": "node",
  "id": 2472822886,
  "lat": 56.2284444,
  "lon": -5.0760002
},
{
  "type": "node",
  "id": 2472822887,
  "lat": 56.2296193,
  "lon": -5.0751619
},
{
  "type": "node",
  "id": 2472822888,
  "lat": 56.2284398,
  "lon": -5.0762405
},
{
  "type": "node",
  "id": 2472822889,
  "lat": 56.2315754,
  "lon": -5.0733004
},
{
  "type": "node",
  "id": 2472822890,
  "lat": 56.2278431,
  "lon": -5.0769657
},
{
  "type": "node",
  "id": 2472822891,
  "lat": 56.2295492,
  "lon": -5.0750787
},
{
  "type": "node",
  "id": 2472822892,
  "lat": 56.2285432,
  "lon": -5.0764272
},
{
  "type": "node",
  "id": 2472822893,
  "lat": 56.2276818,
  "lon": -5.0769147
},
{
  "type": "node",
  "id": 2472822894,
  "lat": 56.2276504,
  "lon": -5.0768635
},
{
  "type": "node",
  "id": 2472822895,
  "lat": 56.2287873,
  "lon": -5.0759799
},
{
  "type": "node",
  "id": 2472822896,
  "lat": 56.2287620,
  "lon": -5.0760443
},
{
  "type": "node",
  "id": 2472822897,
  "lat": 56.2277922,
  "lon": -5.0769750
},
{
  "type": "node",
  "id": 2472822898,
  "lat": 56.2277379,
  "lon": -5.0769532
},
{
  "type": "node",
  "id": 2472822899,
  "lat": 56.2291839,
  "lon": -5.0755335
},
{
  "type": "node",
  "id": 2472822900,
  "lat": 56.2287463,
  "lon": -5.0762484
},
{
  "type": "node",
  "id": 2472822901,
  "lat": 56.2295954,
  "lon": -5.0751002
},
{
  "type": "node",
  "id": 2472822902,
  "lat": 56.2292108,
  "lon": -5.0756286
},
{
  "type": "node",
  "id": 2472822903,
  "lat": 56.2287352,
  "lon": -5.0759263
},
{
  "type": "node",
  "id": 2472822905,
  "lat": 56.2296238,
  "lon": -5.0752182
},
{
  "type": "node",
  "id": 2495130635,
  "lat": 56.2317095,
  "lon": -5.0724890
},
{
  "type": "node",
  "id": 2495130638,
  "lat": 56.2319784,
  "lon": -5.0728761
},
{
  "type": "node",
  "id": 2495130658,
  "lat": 56.2319904,
  "lon": -5.0728505
},
{
  "type": "node",
  "id": 2495130678,
  "lat": 56.2319911,
  "lon": -5.0729713
},
{
  "type": "node",
  "id": 2495130696,
  "lat": 56.2320120,
  "lon": -5.0729820
},
{
  "type": "node",
  "id": 2495130698,
  "lat": 56.2319747,
  "lon": -5.0729150
},
{
  "type": "node",
  "id": 2495130704,
  "lat": 56.2320543,
  "lon": -5.0729489
},
{
  "type": "node",
  "id": 2495130732,
  "lat": 56.2319302,
  "lon": -5.0727706
},
{
  "type": "node",
  "id": 2495130736,
  "lat": 56.2320897,
  "lon": -5.0730120
},
{
  "type": "node",
  "id": 2495130738,
  "lat": 56.2319792,
  "lon": -5.0729431
},
{
  "type": "node",
  "id": 2495130751,
  "lat": 56.2320344,
  "lon": -5.0729740
},
{
  "type": "node",
  "id": 2495130762,
  "lat": 56.2317997,
  "lon": -5.0726017
},
{
  "type": "node",
  "id": 2495130764,
  "lat": 56.2321948,
  "lon": -5.0731810
},
{
  "type": "node",
  "id": 3660975025,
  "lat": 56.2268039,
  "lon": -5.0774644
},
{
  "type": "node",
  "id": 3660975026,
  "lat": 56.2270484,
  "lon": -5.0772498
},
{
  "type": "node",
  "id": 3660975027,
  "lat": 56.2274659,
  "lon": -5.0768904
},
{
  "type": "node",
  "id": 3660975028,
  "lat": 56.2276124,
  "lon": -5.0767777
},
{
  "type": "node",
  "id": 3694908771,
  "lat": 56.2316159,
  "lon": -5.0734015
},
{
  "type": "node",
  "id": 3694908775,
  "lat": 56.2316673,
  "lon": -5.0744976
},
{
  "type": "node",
  "id": 3694908778,
  "lat": 56.2317310,
  "lon": -5.0742495
},
{
  "type": "node",
  "id": 3694908784,
  "lat": 56.2317453,
  "lon": -5.0741895
},
{
  "type": "node",
  "id": 3694908788,
  "lat": 56.2317636,
  "lon": -5.0738168
},
{
  "type": "node",
  "id": 3694908790,
  "lat": 56.2317709,
  "lon": -5.0740926
},
{
  "type": "node",
  "id": 3694908815,
  "lat": 56.2318790,
  "lon": -5.0738745
},
{
  "type": "node",
  "id": 3694908820,
  "lat": 56.2318900,
  "lon": -5.0747900
},
{
  "type": "node",
  "id": 3694908821,
  "lat": 56.2319719,
  "lon": -5.0759288
},
{
  "type": "node",
  "id": 3694908935,
  "lat": 56.2320969,
  "lon": -5.0754746
},
{
  "type": "node",
  "id": 3694908939,
  "lat": 56.2321695,
  "lon": -5.0756398
},
{
  "type": "node",
  "id": 3694908940,
  "lat": 56.2323729,
  "lon": -5.0761555
},
{
  "type": "node",
  "id": 3694908941,
  "lat": 56.2324011,
  "lon": -5.0759892
},
{
  "type": "node",
  "id": 3694908942,
  "lat": 56.2324268,
  "lon": -5.0763448
},
{
  "type": "node",
  "id": 3694908943,
  "lat": 56.2325166,
  "lon": -5.0764325
},
{
  "type": "node",
  "id": 3694908944,
  "lat": 56.2326013,
  "lon": -5.0763632
},
{
  "type": "node",
  "id": 3694908945,
  "lat": 56.2326064,
  "lon": -5.0762386
},
{
  "type": "node",
  "id": 3833963154,
  "lat": 56.2303464,
  "lon": -5.0732703
},
{
  "type": "node",
  "id": 3833963155,
  "lat": 56.2302760,
  "lon": -5.0729943
},
{
  "type": "node",
  "id": 3833963558,
  "lat": 56.2300375,
  "lon": -5.0736159
},
{
  "type": "node",
  "id": 3833963559,
  "lat": 56.2304004,
  "lon": -5.0730851
},
{
  "type": "node",
  "id": 3833989304,
  "lat": 56.2302885,
  "lon": -5.0730482
},
{
  "type": "node",
  "id": 3833989305,
  "lat": 56.2299789,
  "lon": -5.0735540
},
{
  "type": "node",
  "id": 3834005280,
  "lat": 56.2293524,
  "lon": -5.0740286
},
{
  "type": "node",
  "id": 3834005281,
  "lat": 56.2298829,
  "lon": -5.0735204
},
{
  "type": "node",
  "id": 3834034757,
  "lat": 56.2295066,
  "lon": -5.0728042
},
{
  "type": "node",
  "id": 3834034758,
  "lat": 56.2296266,
  "lon": -5.0729253
},
{
  "type": "node",
  "id": 3834034759,
  "lat": 56.2296716,
  "lon": -5.0728969
},
{
  "type": "node",
  "id": 3834047388,
  "lat": 56.2293663,
  "lon": -5.0749116
},
{
  "type": "node",
  "id": 3834047389,
  "lat": 56.2291997,
  "lon": -5.0743216
},
{
  "type": "node",
  "id": 3834163771,
  "lat": 56.2315640,
  "lon": -5.0747149
},
{
  "type": "node",
  "id": 3834163772,
  "lat": 56.2315383,
  "lon": -5.0746248
},
{
  "type": "node",
  "id": 3834163773,
  "lat": 56.2315552,
  "lon": -5.0744975
},
{
  "type": "node",
  "id": 3834168023,
  "lat": 56.2313625,
  "lon": -5.0751788
},
{
  "type": "node",
  "id": 3834169257,
  "lat": 56.2314004,
  "lon": -5.0739424
},
{
  "type": "node",
  "id": 3834169258,
  "lat": 56.2314752,
  "lon": -5.0742211
},
{
  "type": "node",
  "id": 3834172740,
  "lat": 56.2313565,
  "lon": -5.0748058
},
{
  "type": "node",
  "id": 3834172741,
  "lat": 56.2313069,
  "lon": -5.0746387
},
{
  "type": "node",
  "id": 3834172742,
  "lat": 56.2315372,
  "lon": -5.0744352
},
{
  "type": "node",
  "id": 3834189745,
  "lat": 56.2276442,
  "lon": -5.0767909
},
{
  "type": "node",
  "id": 3834189746,
  "lat": 56.2276425,
  "lon": -5.0768315
},
{
  "type": "node",
  "id": 3834189747,
  "lat": 56.2276633,
  "lon": -5.0768939
},
{
  "type": "node",
  "id": 4130716183,
  "lat": 56.2311803,
  "lon": -5.0763542
},
{
  "type": "node",
  "id": 4130716184,
  "lat": 56.2312369,
  "lon": -5.0761289
},
{
  "type": "node",
  "id": 4130716185,
  "lat": 56.2312936,
  "lon": -5.0771588
},
{
  "type": "node",
  "id": 4130716186,
  "lat": 56.2311743,
  "lon": -5.0767082
},
{
  "type": "node",
  "id": 4130716187,
  "lat": 56.2311713,
  "lon": -5.0765365
},
{
  "type": "node",
  "id": 4547454166,
  "lat": 56.2289989,
  "lon": -5.0743806
},
{
  "type": "node",
  "id": 4547454167,
  "lat": 56.2291480,
  "lon": -5.0741419
},
{
  "type": "node",
  "id": 4547454168,
  "lat": 56.2302342,
  "lon": -5.0744805
},
{
  "type": "node",
  "id": 4547454169,
  "lat": 56.2301538,
  "lon": -5.0741440
},
{
  "type": "node",
  "id": 4547454171,
  "lat": 56.2293340,
  "lon": -5.0737104
},
{
  "type": "node",
  "id": 5909497162,
  "lat": 56.2294389,
  "lon": -5.0742888
},
{
  "type": "node",
  "id": 5909497163,
  "lat": 56.2300630,
  "lon": -5.0737308
},
{
  "type": "node",
  "id": 5909497277,
  "lat": 56.2315531,
  "lon": -5.0733199
},
{
  "type": "node",
  "id": 5909497278,
  "lat": 56.2315346,
  "lon": -5.0733361
},
{
  "type": "node",
  "id": 506988040,
  "lat": 56.2299076,
  "lon": -5.0724592
},
{
  "type": "node",
  "id": 1288927072,
  "lat": 56.2304968,
  "lon": -5.0716027
},
{
  "type": "node",
  "id": 1288928124,
  "lat": 56.2311694,
  "lon": -5.0714657
},
{
  "type": "node",
  "id": 1288928459,
  "lat": 56.2300081,
  "lon": -5.0718720
},
{
  "type": "node",
  "id": 1288928890,
  "lat": 56.2302269,
  "lon": -5.0716913
},
{
  "type": "node",
  "id": 1288929002,
  "lat": 56.2315016,
  "lon": -5.0721226
},
{
  "type": "node",
  "id": 1402373694,
  "lat": 56.2312293,
  "lon": -5.0723000
},
{
  "type": "node",
  "id": 1402373698,
  "lat": 56.2313381,
  "lon": -5.0721331
},
{
  "type": "node",
  "id": 1402373701,
  "lat": 56.2314060,
  "lon": -5.0724153
},
{
  "type": "node",
  "id": 1912489850,
  "lat": 56.2313084,
  "lon": -5.0722920
},
{
  "type": "node",
  "id": 1995135006,
  "lat": 56.2299676,
  "lon": -5.0722125
},
{
  "type": "node",
  "id": 1995135008,
  "lat": 56.2300018,
  "lon": -5.0723667
},
{
  "type": "node",
  "id": 1995135009,
  "lat": 56.2300680,
  "lon": -5.0721215
},
{
  "type": "node",
  "id": 2495130653,
  "lat": 56.2308964,
  "lon": -5.0715681
},
{
  "type": "node",
  "id": 2495130656,
  "lat": 56.2303140,
  "lon": -5.0722851
},
{
  "type": "node",
  "id": 2495130677,
  "lat": 56.2303886,
  "lon": -5.0718291
},
{
  "type": "node",
  "id": 2495130679,
  "lat": 56.2314069,
  "lon": -5.0720707
},
{
  "type": "node",
  "id": 2495130682,
  "lat": 56.2304408,
  "lon": -5.0717648
},
{
  "type": "node",
  "id": 2495130688,
  "lat": 56.2315955,
  "lon": -5.0724542
},
{
  "type": "node",
  "id": 2495130689,
  "lat": 56.2303468,
  "lon": -5.0719015
},
{
  "type": "node",
  "id": 2495130690,
  "lat": 56.2303319,
  "lon": -5.0720357
},
{
  "type": "node",
  "id": 2495130693,
  "lat": 56.2305049,
  "lon": -5.0717755
},
{
  "type": "node",
  "id": 2495130697,
  "lat": 56.2303200,
  "lon": -5.0721993
},
{
  "type": "node",
  "id": 2495130699,
  "lat": 56.2305839,
  "lon": -5.0718264
},
{
  "type": "node",
  "id": 2495130702,
  "lat": 56.2306465,
  "lon": -5.0718774
},
{
  "type": "node",
  "id": 2495130708,
  "lat": 56.2314904,
  "lon": -5.0722302
},
{
  "type": "node",
  "id": 2495130721,
  "lat": 56.2307061,
  "lon": -5.0718801
},
{
  "type": "node",
  "id": 2495130722,
  "lat": 56.2307404,
  "lon": -5.0718372
},
{
  "type": "node",
  "id": 2495130724,
  "lat": 56.2308209,
  "lon": -5.0717192
},
{
  "type": "node",
  "id": 2495130726,
  "lat": 56.2308597,
  "lon": -5.0716280
},
{
  "type": "node",
  "id": 2495130733,
  "lat": 56.2302186,
  "lon": -5.0723870
},
{
  "type": "node",
  "id": 2495130734,
  "lat": 56.2316581,
  "lon": -5.0724381
},
{
  "type": "node",
  "id": 2495130753,
  "lat": 56.2313621,
  "lon": -5.0720841
},
{
  "type": "node",
  "id": 3694908731,
  "lat": 56.2308208,
  "lon": -5.0715333
},
{
  "type": "node",
  "id": 3833963560,
  "lat": 56.2312691,
  "lon": -5.0722870
},
{
  "type": "node",
  "id": 3833971393,
  "lat": 56.2303033,
  "lon": -5.0716324
},
{
  "type": "node",
  "id": 3833981320,
  "lat": 56.2302363,
  "lon": -5.0719533
},
{
  "type": "node",
  "id": 5584673940,
  "lat": 56.2313453,
  "lon": -5.0723188
},
{
  "type": "node",
  "id": 5584673941,
  "lat": 56.2313756,
  "lon": -5.0723563
},
{
  "type": "node",
  "id": 26234120,
  "lat": 56.2334259,
  "lon": -5.0802883
},
{
  "type": "node",
  "id": 26234121,
  "lat": 56.2336300,
  "lon": -5.0805111
},
{
  "type": "node",
  "id": 26234123,
  "lat": 56.2379850,
  "lon": -5.0802978
},
{
  "type": "node",
  "id": 415432908,
  "lat": 56.2368829,
  "lon": -5.0791295
},
{
  "type": "node",
  "id": 415432909,
  "lat": 56.2395043,
  "lon": -5.0819112
},
{
  "type": "node",
  "id": 1288927166,
  "lat": 56.2348076,
  "lon": -5.0797524
},
{
  "type": "node",
  "id": 1288927485,
  "lat": 56.2396536,
  "lon": -5.0807740
},
{
  "type": "node",
  "id": 1288927659,
  "lat": 56.2341400,
  "lon": -5.0802897
},
{
  "type": "node",
  "id": 1288927898,
  "lat": 56.2389941,
  "lon": -5.0811804
},
{
  "type": "node",
  "id": 1288928026,
  "lat": 56.2394794,
  "lon": -5.0806068
},
{
  "type": "node",
  "id": 1288928622,
  "lat": 56.2374942,
  "lon": -5.0798624
},
{
  "type": "node",
  "id": 1288928749,
  "lat": 56.2389220,
  "lon": -5.0799276
},
{
  "type": "node",
  "id": 1288928875,
  "lat": 56.2335234,
  "lon": -5.0804500
},
{
  "type": "node",
  "id": 1288928957,
  "lat": 56.2384807,
  "lon": -5.0794260
},
{
  "type": "node",
  "id": 1288929020,
  "lat": 56.2333228,
  "lon": -5.0807009
},
{
  "type": "node",
  "id": 1912489859,
  "lat": 56.2337597,
  "lon": -5.0805017
},
{
  "type": "node",
  "id": 1912489860,
  "lat": 56.2342882,
  "lon": -5.0801869
},
{
  "type": "node",
  "id": 1912489861,
  "lat": 56.2350516,
  "lon": -5.0796223
},
{
  "type": "node",
  "id": 1912489862,
  "lat": 56.2356137,
  "lon": -5.0793731
},
{
  "type": "node",
  "id": 18928891,
  "lat": 56.2345723,
  "lon": -5.0725158
},
{
  "type": "node",
  "id": 18928892,
  "lat": 56.2337406,
  "lon": -5.0733712
},
{
  "type": "node",
  "id": 26234122,
  "lat": 56.2363136,
  "lon": -5.0790400
},
{
  "type": "node",
  "id": 31006271,
  "lat": 56.2341472,
  "lon": -5.0730402
},
{
  "type": "node",
  "id": 420138675,
  "lat": 56.2333588,
  "lon": -5.0747338
},
{
  "type": "node",
  "id": 420138676,
  "lat": 56.2336707,
  "lon": -5.0745842
},
{
  "type": "node",
  "id": 420138678,
  "lat": 56.2340519,
  "lon": -5.0744470
},
{
  "type": "node",
  "id": 420138679,
  "lat": 56.2343083,
  "lon": -5.0743846
},
{
  "type": "node",
  "id": 420138681,
  "lat": 56.2345856,
  "lon": -5.0743846
},
{
  "type": "node",
  "id": 420138682,
  "lat": 56.2348489,
  "lon": -5.0744719
},
{
  "type": "node",
  "id": 420138684,
  "lat": 56.2351262,
  "lon": -5.0745842
},
{
  "type": "node",
  "id": 420138685,
  "lat": 56.2354675,
  "lon": -5.0749350
},
{
  "type": "node",
  "id": 420138690,
  "lat": 56.2363904,
  "lon": -5.0758490
},
{
  "type": "node",
  "id": 420138692,
  "lat": 56.2365639,
  "lon": -5.0759032
},
{
  "type": "node",
  "id": 420138693,
  "lat": 56.2367341,
  "lon": -5.0758935
},
{
  "type": "node",
  "id": 420138694,
  "lat": 56.2369056,
  "lon": -5.0758195
},
{
  "type": "node",
  "id": 420138695,
  "lat": 56.2370598,
  "lon": -5.0756441
},
{
  "type": "node",
  "id": 420138696,
  "lat": 56.2371846,
  "lon": -5.0754571
},
{
  "type": "node",
  "id": 420138697,
  "lat": 56.2374064,
  "lon": -5.0750331
},
{
  "type": "node",
  "id": 420138698,
  "lat": 56.2375865,
  "lon": -5.0747712
},
{
  "type": "node",
  "id": 420138699,
  "lat": 56.2377666,
  "lon": -5.0746380
},
{
  "type": "node",
  "id": 420138700,
  "lat": 56.2378638,
  "lon": -5.0745717
},
{
  "type": "node",
  "id": 420138701,
  "lat": 56.2379400,
  "lon": -5.0744844
},
{
  "type": "node",
  "id": 420138702,
  "lat": 56.2380036,
  "lon": -5.0743545
},
{
  "type": "node",
  "id": 1288927063,
  "lat": 56.2363204,
  "lon": -5.0785797
},
{
  "type": "node",
  "id": 1288927091,
  "lat": 56.2362379,
  "lon": -5.0757185
},
{
  "type": "node",
  "id": 1288927264,
  "lat": 56.2374702,
  "lon": -5.0786528
},
{
  "type": "node",
  "id": 1288927552,
  "lat": 56.2360359,
  "lon": -5.0786110
},
{
  "type": "node",
  "id": 1288927651,
  "lat": 56.2337749,
  "lon": -5.0775703
},
{
  "type": "node",
  "id": 1288927780,
  "lat": 56.2372031,
  "lon": -5.0784961
},
{
  "type": "node",
  "id": 1288927867,
  "lat": 56.2336246,
  "lon": -5.0774217
},
{
  "type": "node",
  "id": 1288928108,
  "lat": 56.2356655,
  "lon": -5.0785987
},
{
  "type": "node",
  "id": 1288928232,
  "lat": 56.2336630,
  "lon": -5.0777749
},
{
  "type": "node",
  "id": 1288928288,
  "lat": 56.2347029,
  "lon": -5.0783987
},
{
  "type": "node",
  "id": 1288928428,
  "lat": 56.2369012,
  "lon": -5.0784647
},
{
  "type": "node",
  "id": 1288928580,
  "lat": 56.2333415,
  "lon": -5.0770365
},
{
  "type": "node",
  "id": 1288928820,
  "lat": 56.2346271,
  "lon": -5.0784693
},
{
  "type": "node",
  "id": 1288928838,
  "lat": 56.2334885,
  "lon": -5.0779473
},
{
  "type": "node",
  "id": 1288928866,
  "lat": 56.2345761,
  "lon": -5.0783290
},
{
  "type": "node",
  "id": 1288928887,
  "lat": 56.2366863,
  "lon": -5.0784647
},
{
  "type": "node",
  "id": 1288928924,
  "lat": 56.2365579,
  "lon": -5.0790143
},
{
  "type": "node",
  "id": 1288928998,
  "lat": 56.2332744,
  "lon": -5.0779958
},
{
  "type": "node",
  "id": 1393867174,
  "lat": 56.2380253,
  "lon": -5.0748316
},
{
  "type": "node",
  "id": 1393867180,
  "lat": 56.2381534,
  "lon": -5.0740390
},
{
  "type": "node",
  "id": 1393867181,
  "lat": 56.2382686,
  "lon": -5.0741919
},
{
  "type": "node",
  "id": 1394453158,
  "lat": 56.2335131,
  "lon": -5.0734786
},
{
  "type": "node",
  "id": 1995135010,
  "lat": 56.2369627,
  "lon": -5.0784711
},
{
  "type": "node",
  "id": 1995135011,
  "lat": 56.2370189,
  "lon": -5.0781698
},
{
  "type": "node",
  "id": 1995135012,
  "lat": 56.2370749,
  "lon": -5.0776347
},
{
  "type": "node",
  "id": 1995135013,
  "lat": 56.2372633,
  "lon": -5.0776135
},
{
  "type": "node",
  "id": 1995135014,
  "lat": 56.2373620,
  "lon": -5.0785893
},
{
  "type": "node",
  "id": 1995135015,
  "lat": 56.2374079,
  "lon": -5.0783979
},
{
  "type": "node",
  "id": 1995135016,
  "lat": 56.2374500,
  "lon": -5.0749697
},
{
  "type": "node",
  "id": 1995135017,
  "lat": 56.2374605,
  "lon": -5.0777460
},
{
  "type": "node",
  "id": 1995135018,
  "lat": 56.2374766,
  "lon": -5.0751764
},
{
  "type": "node",
  "id": 1995135019,
  "lat": 56.2376945,
  "lon": -5.0744641
},
{
  "type": "node",
  "id": 1995135020,
  "lat": 56.2380183,
  "lon": -5.0738815
},
{
  "type": "node",
  "id": 1995135021,
  "lat": 56.2381529,
  "lon": -5.0736589
},
{
  "type": "node",
  "id": 1995135022,
  "lat": 56.2382875,
  "lon": -5.0736393
},
{
  "type": "node",
  "id": 1995135023,
  "lat": 56.2388193,
  "lon": -5.0740106
},
{
  "type": "node",
  "id": 1995135024,
  "lat": 56.2394129,
  "lon": -5.0745983
},
{
  "type": "node",
  "id": 2495130645,
  "lat": 56.2341828,
  "lon": -5.0776041
},
{
  "type": "node",
  "id": 2495130665,
  "lat": 56.2340580,
  "lon": -5.0778384
},
{
  "type": "node",
  "id": 2495130667,
  "lat": 56.2344511,
  "lon": -5.0772393
},
{
  "type": "node",
  "id": 26234124,
  "lat": 56.2401824,
  "lon": -5.0833564
},
{
  "type": "node",
  "id": 415432910,
  "lat": 56.2397770,
  "lon": -5.0823389
},
{
  "type": "node",
  "id": 1288927132,
  "lat": 56.2433388,
  "lon": -5.0852897
},
{
  "type": "node",
  "id": 1288927188,
  "lat": 56.2425432,
  "lon": -5.0818835
},
{
  "type": "node",
  "id": 1288927366,
  "lat": 56.2400298,
  "lon": -5.0829013
},
{
  "type": "node",
  "id": 1288927386,
  "lat": 56.2433377,
  "lon": -5.0836165
},
{
  "type": "node",
  "id": 1288927462,
  "lat": 56.2402459,
  "lon": -5.0808575
},
{
  "type": "node",
  "id": 1288927640,
  "lat": 56.2436118,
  "lon": -5.0846728
},
{
  "type": "node",
  "id": 1288927677,
  "lat": 56.2422259,
  "lon": -5.0818084
},
{
  "type": "node",
  "id": 1288927931,
  "lat": 56.2431016,
  "lon": -5.0830778
},
{
  "type": "node",
  "id": 1288928279,
  "lat": 56.2416372,
  "lon": -5.0816611
},
{
  "type": "node",
  "id": 1288928600,
  "lat": 56.2433478,
  "lon": -5.0843242
},
{
  "type": "node",
  "id": 1288928654,
  "lat": 56.2428249,
  "lon": -5.0821645
},
{
  "type": "node",
  "id": 1288928830,
  "lat": 56.2432548,
  "lon": -5.0843800
},
{
  "type": "node",
  "id": 1288928834,
  "lat": 56.2436677,
  "lon": -5.0850498
},
{
  "type": "node",
  "id": 1288928863,
  "lat": 56.2410937,
  "lon": -5.0814531
},
{
  "type": "node",
  "id": 1288928933,
  "lat": 56.2427289,
  "lon": -5.0820193
},
{
  "type": "node",
  "id": 1288928994,
  "lat": 56.2436446,
  "lon": -5.0851879
},
{
  "type": "node",
  "id": 1288929008,
  "lat": 56.2405014,
  "lon": -5.0810561
},
{
  "type": "node",
  "id": 1839657173,
  "lat": 56.2433750,
  "lon": -5.0839931
},
{
  "type": "node",
  "id": 18928885,
  "lat": 56.2374337,
  "lon": -5.0667302
},
{
  "type": "node",
  "id": 18928886,
  "lat": 56.2369044,
  "lon": -5.0678113
},
{
  "type": "node",
  "id": 18928887,
  "lat": 56.2361562,
  "lon": -5.0693910
},
{
  "type": "node",
  "id": 18928888,
  "lat": 56.2356583,
  "lon": -5.0705041
},
{
  "type": "node",
  "id": 18928890,
  "lat": 56.2353884,
  "lon": -5.0710164
},
{
  "type": "node",
  "id": 1341008899,
  "lat": 56.2371725,
  "lon": -5.0672490
},
{
  "type": "node",
  "id": 2103349311,
  "lat": 56.2367310,
  "lon": -5.0681785
},
{
  "type": "node",
  "id": 2107337814,
  "lat": 56.2382297,
  "lon": -5.0659631
},
{
  "type": "node",
  "id": 3658569583,
  "lat": 56.2377169,
  "lon": -5.0664030
},
{
  "type": "node",
  "id": 3658569584,
  "lat": 56.2375499,
  "lon": -5.0665746
},
{
  "type": "node",
  "id": 3658569585,
  "lat": 56.2348905,
  "lon": -5.0719820
},
{
  "type": "node",
  "id": 18928881,
  "lat": 56.2395175,
  "lon": -5.0637047
},
{
  "type": "node",
  "id": 18928882,
  "lat": 56.2389509,
  "lon": -5.0648254
},
{
  "type": "node",
  "id": 18928884,
  "lat": 56.2385785,
  "lon": -5.0655071
},
{
  "type": "node",
  "id": 3658569581,
  "lat": 56.2392343,
  "lon": -5.0642411
},
{
  "type": "node",
  "id": 3658569582,
  "lat": 56.2384026,
  "lon": -5.0657592
},
{
  "type": "node",
  "id": 18928877,
  "lat": 56.2422118,
  "lon": -5.0597204
},
{
  "type": "node",
  "id": 18928878,
  "lat": 56.2414731,
  "lon": -5.0606791
},
{
  "type": "node",
  "id": 18928879,
  "lat": 56.2408262,
  "lon": -5.0618003
},
{
  "type": "node",
  "id": 18928880,
  "lat": 56.2401555,
  "lon": -5.0628410
},
{
  "type": "node",
  "id": 3658569568,
  "lat": 56.2418099,
  "lon": -5.0602232
},
{
  "type": "node",
  "id": 3658569569,
  "lat": 56.2412644,
  "lon": -5.0610332
},
{
  "type": "node",
  "id": 3658569579,
  "lat": 56.2397530,
  "lon": -5.0633399
},
{
  "type": "node",
  "id": 3658569580,
  "lat": 56.2404685,
  "lon": -5.0624065
},
{
  "type": "node",
  "id": 18928869,
  "lat": 56.2459771,
  "lon": -5.0548802
},
{
  "type": "node",
  "id": 18928871,
  "lat": 56.2454167,
  "lon": -5.0557814
},
{
  "type": "node",
  "id": 18928873,
  "lat": 56.2444089,
  "lon": -5.0573798
},
{
  "type": "node",
  "id": 18928874,
  "lat": 56.2441350,
  "lon": -5.0577126
},
{
  "type": "node",
  "id": 18928875,
  "lat": 56.2431538,
  "lon": -5.0585211
},
{
  "type": "node",
  "id": 31006270,
  "lat": 56.2436508,
  "lon": -5.0580331
},
{
  "type": "node",
  "id": 3658569565,
  "lat": 56.2439442,
  "lon": -5.0578253
},
{
  "type": "node",
  "id": 3658569566,
  "lat": 56.2442692,
  "lon": -5.0575946
},
{
  "type": "node",
  "id": 3658569567,
  "lat": 56.2434047,
  "lon": -5.0582491
},
{
  "type": "node",
  "id": 3834135885,
  "lat": 56.2433253,
  "lon": -5.0583352
},
{
  "type": "node",
  "id": 3834138065,
  "lat": 56.2451071,
  "lon": -5.0562475
},
{
  "type": "node",
  "id": 3834138069,
  "lat": 56.2446112,
  "lon": -5.0570315
},
{
  "type": "node",
  "id": 3834138070,
  "lat": 56.2447848,
  "lon": -5.0567326
},
{
  "type": "node",
  "id": 18928868,
  "lat": 56.2470710,
  "lon": -5.0532709
},
{
  "type": "node",
  "id": 31006269,
  "lat": 56.2466626,
  "lon": -5.0539307
},
{
  "type": "node",
  "id": 1995135100,
  "lat": 56.2462901,
  "lon": -5.0544296
},
{
  "type": "node",
  "id": 3470457850,
  "lat": 56.2472498,
  "lon": -5.0529276
},
{
  "type": "node",
  "id": 18928865,
  "lat": 56.2478370,
  "lon": -5.0480942
},
{
  "type": "node",
  "id": 18928866,
  "lat": 56.2479727,
  "lon": -5.0498311
},
{
  "type": "node",
  "id": 18928867,
  "lat": 56.2478310,
  "lon": -5.0511788
},
{
  "type": "node",
  "id": 31006266,
  "lat": 56.2475568,
  "lon": -5.0470106
},
{
  "type": "node",
  "id": 31006267,
  "lat": 56.2479517,
  "lon": -5.0488107
},
{
  "type": "node",
  "id": 31006268,
  "lat": 56.2475717,
  "lon": -5.0521819
},
{
  "type": "node",
  "id": 1288927957,
  "lat": 56.2473034,
  "lon": -5.0463937
},
{
  "type": "node",
  "id": 1288928672,
  "lat": 56.2477326,
  "lon": -5.0475631
},
{
  "type": "node",
  "id": 2107337785,
  "lat": 56.2479293,
  "lon": -5.0505243
},
{
  "type": "node",
  "id": 3658569561,
  "lat": 56.2474316,
  "lon": -5.0466780
},
{
  "type": "node",
  "id": 3658569563,
  "lat": 56.2477118,
  "lon": -5.0516991
},
{
  "type": "node",
  "id": 3658569564,
  "lat": 56.2474227,
  "lon": -5.0525574
},
{
  "type": "node",
  "id": 18928862,
  "lat": 56.2466686,
  "lon": -5.0454442
},
{
  "type": "node",
  "id": 18928863,
  "lat": 56.2470918,
  "lon": -5.0459914
},
{
  "type": "node",
  "id": 31006265,
  "lat": 56.2464719,
  "lon": -5.0452511
},
{
  "type": "node",
  "id": 1288927417,
  "lat": 56.2469070,
  "lon": -5.0457124
}

  ]
}